FLOCK 3P-74             
1 42048U 17008DE  17073.69255210  .00001110  00000-0  52163-4 0  9996
2 42048  97.5102 135.2828 0009388 159.4482 200.7132 15.21684197  3321
